start=new Date('2022-03-27T00:00:00.000Z').valueOf();
sats=[{"ELEMENT_SET_NO":"999","ECCENTRICITY":"0.00017420","MEAN_ELEMENT_THEORY":"SGP4","MEAN_MOTION":"15.06393061","OBJECT_NAME":"STARLINK-1160","GP_ID":"199777747","EPOCH":"2022-03-26T18:36:08.264160","MEAN_MOTION_DDOT":"0.0000000000000","INCLINATION":"53.0551","SITE":"AFETR","REF_FRAME":"TEME","TLE_LINE1":"1 45082U 20006AQ  22085.77509565  .00000070  00000-0  23609-4 0  9999","ARG_OF_PERICENTER":"58.8187","CENTER_NAME":"EARTH","RCS_SIZE":"LARGE","NORAD_CAT_ID":"45082","DECAY_DATE":null,"REV_AT_EPOCH":"11910","PERIOD":"95.593","RA_OF_ASC_NODE":"268.5985","MEAN_MOTION_DOT":"0.00000070","SEMIMAJOR_AXIS":"6925.370","EPHEMERIS_TYPE":"0","BSTAR":"0.00002360900000","FILE":"3375650","PERIAPSIS":"546.028","APOAPSIS":"548.441","OBJECT_TYPE":"PAYLOAD","MEAN_ANOMALY":"301.2973","LAUNCH_DATE":"2020-01-29","OBJECT_ID":"2020-006AQ","TLE_LINE2":"2 45082  53.0551 268.5985 0001742  58.8187 301.2973 15.06393061119105","COUNTRY_CODE":"US","CLASSIFICATION_TYPE":"U","TIME_SYSTEM":"UTC"},{"PERIAPSIS":"546.218","APOAPSIS":"548.299","OBJECT_TYPE":"PAYLOAD","MEAN_ANOMALY":"299.1120","BSTAR":"-0.00006406400000","FILE":"3375650","SEMIMAJOR_AXIS":"6925.394","EPHEMERIS_TYPE":"0","CLASSIFICATION_TYPE":"U","TIME_SYSTEM":"UTC","COUNTRY_CODE":"US","LAUNCH_DATE":"2020-01-29","OBJECT_ID":"2020-006AR","TLE_LINE2":"2 45083  53.0551 288.1755 0001502  61.0020 299.1120 15.06385320118843","MEAN_MOTION":"15.06385320","MEAN_ELEMENT_THEORY":"SGP4","ECCENTRICITY":"0.00015020","ELEMENT_SET_NO":"999","NORAD_CAT_ID":"45083","DECAY_DATE":null,"REV_AT_EPOCH":"11884","PERIOD":"95.593","RA_OF_ASC_NODE":"288.1755","MEAN_MOTION_DOT":"-0.00001235","TLE_LINE1":"1 45083U 20006AR  22085.87278037 -.00001235  00000-0 -64064-4 0  9994","ARG_OF_PERICENTER":"61.0020","CENTER_NAME":"EARTH","RCS_SIZE":"LARGE","INCLINATION":"53.0551","SITE":"AFETR","REF_FRAME":"TEME","OBJECT_NAME":"STARLINK-1190","EPOCH":"2022-03-26T20:56:48.223968","GP_ID":"199778498","MEAN_MOTION_DDOT":"0.0000000000000"},{"ELEMENT_SET_NO":"999","MEAN_ELEMENT_THEORY":"SGP4","ECCENTRICITY":"0.00014270","MEAN_MOTION":"15.06401691","EPOCH":"2022-03-26T17:19:09.094656","GP_ID":"199777246","OBJECT_NAME":"STARLINK-1173","MEAN_MOTION_DDOT":"0.0000000000000","SITE":"AFETR","REF_FRAME":"TEME","INCLINATION":"53.0546","ARG_OF_PERICENTER":"69.1741","TLE_LINE1":"1 45084U 20006AS  22085.72163304  .00001622  00000-0  12773-3 0  9996","RCS_SIZE":"LARGE","CENTER_NAME":"EARTH","NORAD_CAT_ID":"45084","PERIOD":"95.592","MEAN_MOTION_DOT":"0.00001622","RA_OF_ASC_NODE":"248.8447","DECAY_DATE":null,"REV_AT_EPOCH":"11938","EPHEMERIS_TYPE":"0","SEMIMAJOR_AXIS":"6925.343","FILE":"3375650","BSTAR":"0.00012773000000","OBJECT_TYPE":"PAYLOAD","APOAPSIS":"548.197","PERIAPSIS":"546.220","MEAN_ANOMALY":"290.9400","TLE_LINE2":"2 45084  53.0546 248.8447 0001427  69.1741 290.9400 15.06401691119384","LAUNCH_DATE":"2020-01-29","OBJECT_ID":"2020-006AS","COUNTRY_CODE":"US","CLASSIFICATION_TYPE":"U","TIME_SYSTEM":"UTC"},{"ELEMENT_SET_NO":"999","ECCENTRICITY":"0.00016590","MEAN_ELEMENT_THEORY":"SGP4","MEAN_MOTION":"15.06400660","MEAN_MOTION_DDOT":"0.0000000000000","EPOCH":"2022-03-26T17:13:51.099456","GP_ID":"199776996","OBJECT_NAME":"STARLINK-1179","SITE":"AFETR","REF_FRAME":"TEME","INCLINATION":"53.0534","RCS_SIZE":"LARGE","CENTER_NAME":"EARTH","ARG_OF_PERICENTER":"69.3562","TLE_LINE1":"1 45085U 20006AT  22085.71795254  .00002551  00000-0  19010-3 0  9994","PERIOD":"95.592","MEAN_MOTION_DOT":"0.00002551","RA_OF_ASC_NODE":"248.8481","DECAY_DATE":null,"REV_AT_EPOCH":"11938","NORAD_CAT_ID":"45085","EPHEMERIS_TYPE":"0","SEMIMAJOR_AXIS":"6925.347","FILE":"3375650","BSTAR":"0.00019010000000","MEAN_ANOMALY":"290.7605","OBJECT_TYPE":"PAYLOAD","APOAPSIS":"548.360","PERIAPSIS":"546.063","TLE_LINE2":"2 45085  53.0534 248.8481 0001659  69.3562 290.7605 15.06400660119380","OBJECT_ID":"2020-006AT","LAUNCH_DATE":"2020-01-29","COUNTRY_CODE":"US","TIME_SYSTEM":"UTC","CLASSIFICATION_TYPE":"U"},{"BSTAR":"0.00122080000000","FILE":"3375650","EPHEMERIS_TYPE":"0","SEMIMAJOR_AXIS":"6909.072","MEAN_ANOMALY":"190.6952","OBJECT_TYPE":"PAYLOAD","APOAPSIS":"531.456","PERIAPSIS":"530.418","TLE_LINE2":"2 45086  52.9997 243.1574 0000751 169.4054 190.6952 15.11726371119359","LAUNCH_DATE":"2020-01-29","OBJECT_ID":"2020-006AU","TIME_SYSTEM":"UTC","CLASSIFICATION_TYPE":"U","COUNTRY_CODE":"US","MEAN_ELEMENT_THEORY":"SGP4","ECCENTRICITY":"0.00007510","ELEMENT_SET_NO":"999","MEAN_MOTION":"15.11726371","REF_FRAME":"TEME","SITE":"AFETR","INCLINATION":"52.9997","MEAN_MOTION_DDOT":"0.0000000000000","EPOCH":"2022-03-26T18:27:35.626176","GP_ID":"199778248","OBJECT_NAME":"STARLINK-1181","PERIOD":"95.255","MEAN_MOTION_DOT":"0.00020807","RA_OF_ASC_NODE":"243.1574","REV_AT_EPOCH":"11935","DECAY_DATE":null,"NORAD_CAT_ID":"45086","RCS_SIZE":"LARGE","CENTER_NAME":"EARTH","ARG_OF_PERICENTER":"169.4054","TLE_LINE1":"1 45086U 20006AU  22085.76916234  .00020807  00000-0  12208-2 0  9998"},{"EPHEMERIS_TYPE":"0","SEMIMAJOR_AXIS":"6925.379","FILE":"3375650","BSTAR":"-0.00000743170000","MEAN_ANOMALY":"288.2770","OBJECT_TYPE":"PAYLOAD","PERIAPSIS":"546.257","APOAPSIS":"548.231","TLE_LINE2":"2 45087  53.0544 248.6177 0001425  71.8374 288.2770 15.06390096119390","OBJECT_ID":"2020-006AV","LAUNCH_DATE":"2020-01-29","COUNTRY_CODE":"US","TIME_SYSTEM":"UTC","CLASSIFICATION_TYPE":"U","ELEMENT_SET_NO":"999","ECCENTRICITY":"0.00014250","MEAN_ELEMENT_THEORY":"SGP4","MEAN_MOTION":"15.06390096","MEAN_MOTION_DDOT":"0.0000000000000","GP_ID":"199777998","EPOCH":"2022-03-26T18:28:10.503264","OBJECT_NAME":"STARLINK-1185","REF_FRAME":"TEME","SITE":"AFETR","INCLINATION":"53.0544","RCS_SIZE":"LARGE","CENTER_NAME":"EARTH","ARG_OF_PERICENTER":"71.8374","TLE_LINE1":"1 45087U 20006AV  22085.76956601 -.00000392  00000-0 -74317-5 0  9992","PERIOD":"95.593","RA_OF_ASC_NODE":"248.6177","MEAN_MOTION_DOT":"-0.00000392","REV_AT_EPOCH":"11939","DECAY_DATE":null,"NORAD_CAT_ID":"45087"},{"COUNTRY_CODE":"US","CLASSIFICATION_TYPE":"U","TIME_SYSTEM":"UTC","TLE_LINE2":"2 45088  53.0531 248.2377 0001447  76.0385 284.0764 15.06400696119405","OBJECT_ID":"2020-006AW","LAUNCH_DATE":"2020-01-29","OBJECT_TYPE":"PAYLOAD","PERIAPSIS":"546.209","APOAPSIS":"548.214","MEAN_ANOMALY":"284.0764","EPHEMERIS_TYPE":"0","SEMIMAJOR_AXIS":"6925.346","BSTAR":"0.00009527000000","FILE":"3375650","ARG_OF_PERICENTER":"76.0385","TLE_LINE1":"1 45088U 20006AW  22085.85801124  .00001138  00000-0  95270-4 0  9999","RCS_SIZE":"LARGE","CENTER_NAME":"EARTH","NORAD_CAT_ID":"45088","PERIOD":"95.592","MEAN_MOTION_DOT":"0.00001138","RA_OF_ASC_NODE":"248.2377","DECAY_DATE":null,"REV_AT_EPOCH":"11940","EPOCH":"2022-03-26T20:35:32.171136","GP_ID":"199776746","OBJECT_NAME":"STARLINK-1183","MEAN_MOTION_DDOT":"0.0000000000000","SITE":"AFETR","REF_FRAME":"TEME","INCLINATION":"53.0531","MEAN_MOTION":"15.06400696","ELEMENT_SET_NO":"999","MEAN_ELEMENT_THEORY":"SGP4","ECCENTRICITY":"0.00014470"},{"MEAN_ANOMALY":"288.6866","APOAPSIS":"548.233","PERIAPSIS":"546.197","OBJECT_TYPE":"PAYLOAD","FILE":"3375650","BSTAR":"0.00002148400000","SEMIMAJOR_AXIS":"6925.350","EPHEMERIS_TYPE":"0","TIME_SYSTEM":"UTC","CLASSIFICATION_TYPE":"U","COUNTRY_CODE":"US","OBJECT_ID":"2020-006AX","LAUNCH_DATE":"2020-01-29","TLE_LINE2":"2 45089  53.0589 248.2290 0001470  71.4283 288.6866 15.06399454119418","MEAN_MOTION":"15.06399454","MEAN_ELEMENT_THEORY":"SGP4","ECCENTRICITY":"0.00014700","ELEMENT_SET_NO":"999","DECAY_DATE":null,"REV_AT_EPOCH":"11941","MEAN_MOTION_DOT":"0.00000039","PERIOD":"95.592","RA_OF_ASC_NODE":"248.2290","NORAD_CAT_ID":"45089","CENTER_NAME":"EARTH","RCS_SIZE":"LARGE","TLE_LINE1":"1 45089U 20006AX  22085.85707979  .00000039  00000-0  21484-4 0  9998","ARG_OF_PERICENTER":"71.4283","INCLINATION":"53.0589","REF_FRAME":"TEME","SITE":"AFETR","MEAN_MOTION_DDOT":"0.0000000000000","OBJECT_NAME":"STARLINK-1136","GP_ID":"199777497","EPOCH":"2022-03-26T20:34:11.693856"},{"NORAD_CAT_ID":"45090","PERIOD":"95.592","MEAN_MOTION_DOT":"0.00002171","RA_OF_ASC_NODE":"247.9982","REV_AT_EPOCH":"11941","DECAY_DATE":null,"ARG_OF_PERICENTER":"75.9111","TLE_LINE1":"1 45090U 20006AY  22085.90961670  .00002171  00000-0  16461-3 0  9993","RCS_SIZE":"LARGE","CENTER_NAME":"EARTH","SITE":"AFETR","REF_FRAME":"TEME","INCLINATION":"53.0537","GP_ID":"199777748","EPOCH":"2022-03-26T21:49:50.882880","OBJECT_NAME":"STARLINK-1176","MEAN_MOTION_DDOT":"0.0000000000000","MEAN_MOTION":"15.06403041","ECCENTRICITY":"0.00014770","MEAN_ELEMENT_THEORY":"SGP4","ELEMENT_SET_NO":"999","CLASSIFICATION_TYPE":"U","TIME_SYSTEM":"UTC","COUNTRY_CODE":"US","TLE_LINE2":"2 45090  53.0537 247.9982 0001477  75.9111 284.2042 15.06403041119419","LAUNCH_DATE":"2020-01-29","OBJECT_ID":"2020-006AY","OBJECT_TYPE":"PAYLOAD","APOAPSIS":"548.227","PERIAPSIS":"546.181","MEAN_ANOMALY":"284.2042","BSTAR":"0.00016461000000","FILE":"3375650","EPHEMERIS_TYPE":"0","SEMIMAJOR_AXIS":"6925.339"},{"ECCENTRICITY":"0.00016990","MEAN_ELEMENT_THEORY":"SGP4","ELEMENT_SET_NO":"999","MEAN_MOTION":"15.06393242","SITE":"AFETR","REF_FRAME":"TEME","INCLINATION":"53.0544","MEAN_MOTION_DDOT":"0.0000000000000","GP_ID":"199778499","EPOCH":"2022-03-26T19:37:09.674976","OBJECT_NAME":"STARLINK-1137","PERIOD":"95.593","MEAN_MOTION_DOT":"0.00000348","RA_OF_ASC_NODE":"248.4203","REV_AT_EPOCH":"11939","DECAY_DATE":null,"NORAD_CAT_ID":"45092","RCS_SIZE":"LARGE","CENTER_NAME":"EARTH","ARG_OF_PERICENTER":"76.9527","TLE_LINE1":"1 45092U 20006BA  22085.81747309  .00000348  00000-0  42270-4 0  9998","BSTAR":"0.00004227000000","FILE":"3375650","EPHEMERIS_TYPE":"0","SEMIMAJOR_AXIS":"6925.369","MEAN_ANOMALY":"283.1651","OBJECT_TYPE":"PAYLOAD","APOAPSIS":"548.411","PERIAPSIS":"546.058","TLE_LINE2":"2 45092  53.0544 248.4203 0001699  76.9527 283.1651 15.06393242119391","LAUNCH_DATE":"2020-01-29","OBJECT_ID":"2020-006BA","TIME_SYSTEM":"UTC","CLASSIFICATION_TYPE":"U","COUNTRY_CODE":"US"}];
